[{"OBJECT_NAME":"ONEWEB-0102","OBJECT_ID":"2020-100A","EPOCH":"2025-07-29T13:48:28.204416","MEAN_MOTION":13.12441146,"ECCENTRICITY":0.0001659,"INCLINATION":87.885,"RA_OF_ASC_NODE":54.8222,"ARG_OF_PERICENTER":81.9329,"MEAN_ANOMALY":278.1987,"EPHEMERIS_TYPE":0,"CLASSIFICATION_TYPE":"U","NORAD_CAT_ID":47258,"ELEMENT_SET_NO":999,"REV_AT_EPOCH":22241,"BSTAR":0.00020526,"MEAN_MOTION_DOT":8.7e-7,"MEAN_MOTION_DDOT":0},{"OBJECT_NAME":"ONEWEB-0109","OBJECT_ID":"2020-100B","EPOCH":"2025-07-29T14:00:09.198720","MEAN_MOTION":13.12440594,"ECCENTRICITY":0.0001725,"INCLINATION":87.885,"RA_OF_ASC_NODE":54.7905,"ARG_OF_PERICENTER":81.9543,"MEAN_ANOMALY":278.1781,"EPHEMERIS_TYPE":0,"CLASSIFICATION_TYPE":"U","NORAD_CAT_ID":47259,"ELEMENT_SET_NO":999,"REV_AT_EPOCH":22224,"BSTAR":-0.0005606,"MEAN_MOTION_DOT":-1.89e-6,"MEAN_MOTION_DDOT":0},{"OBJECT_NAME":"ONEWEB-0110","OBJECT_ID":"2020-100C","EPOCH":"2025-07-29T12:47:44.845152","MEAN_MOTION":13.12443701,"ECCENTRICITY":0.0002027,"INCLINATION":87.8855,"RA_OF_ASC_NODE":54.7832,"ARG_OF_PERICENTER":82.3939,"MEAN_ANOMALY":277.7419,"EPHEMERIS_TYPE":0,"CLASSIFICATION_TYPE":"U","NORAD_CAT_ID":47260,"ELEMENT_SET_NO":999,"REV_AT_EPOCH":22240,"BSTAR":-0.00048006,"MEAN_MOTION_DOT":-1.6e-6,"MEAN_MOTION_DDOT":0},{"OBJECT_NAME":"ONEWEB-0111","OBJECT_ID":"2020-100D","EPOCH":"2025-07-29T20:51:15.216768","MEAN_MOTION":13.12442005,"ECCENTRICITY":0.0001725,"INCLINATION":87.8853,"RA_OF_ASC_NODE":54.7321,"ARG_OF_PERICENTER":84.8492,"MEAN_ANOMALY":275.2834,"EPHEMERIS_TYPE":0,"CLASSIFICATION_TYPE":"U","NORAD_CAT_ID":47261,"ELEMENT_SET_NO":999,"REV_AT_EPOCH":22228,"BSTAR":0.0012985,"MEAN_MOTION_DOT":4.8e-6,"MEAN_MOTION_DDOT":0},{"OBJECT_NAME":"ONEWEB-0114","OBJECT_ID":"2020-100E","EPOCH":"2025-07-29T19:45:49.574016","MEAN_MOTION":13.12442846,"ECCENTRICITY":0.0001471,"INCLINATION":87.8844,"RA_OF_ASC_NODE":54.739,"ARG_OF_PERICENTER":79.2822,"MEAN_ANOMALY":280.8472,"EPHEMERIS_TYPE":0,"CLASSIFICATION_TYPE":"U","NORAD_CAT_ID":47262,"ELEMENT_SET_NO":999,"REV_AT_EPOCH":22223,"BSTAR":-0.0015697,"MEAN_MOTION_DOT":-5.52e-6,"MEAN_MOTION_DDOT":0},{"OBJECT_NAME":"ONEWEB-0117","OBJECT_ID":"2020-100F","EPOCH":"2025-07-29T19:34:09.953472","MEAN_MOTION":13.12442367,"ECCENTRICITY":0.0001784,"INCLINATION":87.8857,"RA_OF_ASC_NODE":54.7343,"ARG_OF_PERICENTER":85.9333,"MEAN_ANOMALY":274.2,"EPHEMERIS_TYPE":0,"CLASSIFICATION_TYPE":"U","NORAD_CAT_ID":47263,"ELEMENT_SET_NO":999,"REV_AT_EPOCH":22224,"BSTAR":-0.00070855,"MEAN_MOTION_DOT":-2.42e-6,"MEAN_MOTION_DDOT":0},{"OBJECT_NAME":"ONEWEB-0118","OBJECT_ID":"2020-100G","EPOCH":"2025-07-29T13:01:45.884352","MEAN_MOTION":13.12443446,"ECCENTRICITY":0.0001402,"INCLINATION":87.8855,"RA_OF_ASC_NODE":54.7889,"ARG_OF_PERICENTER":89.5808,"MEAN_ANOMALY":270.5481,"EPHEMERIS_TYPE":0,"CLASSIFICATION_TYPE":"U","NORAD_CAT_ID":47264,"ELEMENT_SET_NO":999,"REV_AT_EPOCH":22240,"BSTAR":0.00040516,"MEAN_MOTION_DOT":1.58e-6,"MEAN_MOTION_DDOT":0},{"OBJECT_NAME":"ONEWEB-0119","OBJECT_ID":"2020-100H","EPOCH":"2025-07-29T13:41:28.725504","MEAN_MOTION":13.12441836,"ECCENTRICITY":0.0001755,"INCLINATION":87.8853,"RA_OF_ASC_NODE":54.8228,"ARG_OF_PERICENTER":83.9597,"MEAN_ANOMALY":276.1731,"EPHEMERIS_TYPE":0,"CLASSIFICATION_TYPE":"U","NORAD_CAT_ID":47265,"ELEMENT_SET_NO":999,"REV_AT_EPOCH":22238,"BSTAR":0.00051503,"MEAN_MOTION_DOT":1.98e-6,"MEAN_MOTION_DDOT":0},{"OBJECT_NAME":"ONEWEB-0120","OBJECT_ID":"2020-100J","EPOCH":"2025-07-29T14:14:22.741728","MEAN_MOTION":13.12442373,"ECCENTRICITY":0.0001652,"INCLINATION":87.8861,"RA_OF_ASC_NODE":54.8151,"ARG_OF_PERICENTER":83.5756,"MEAN_ANOMALY":276.5561,"EPHEMERIS_TYPE":0,"CLASSIFICATION_TYPE":"U","NORAD_CAT_ID":47266,"ELEMENT_SET_NO":999,"REV_AT_EPOCH":22241,"BSTAR":-0.0011009,"MEAN_MOTION_DOT":-3.83e-6,"MEAN_MOTION_DDOT":0},{"OBJECT_NAME":"ONEWEB-0121","OBJECT_ID":"2020-100K","EPOCH":"2025-07-29T19:27:11.019744","MEAN_MOTION":13.12441529,"ECCENTRICITY":0.000184,"INCLINATION":87.8855,"RA_OF_ASC_NODE":54.7416,"ARG_OF_PERICENTER":84.7733,"MEAN_ANOMALY":275.3605,"EPHEMERIS_TYPE":0,"CLASSIFICATION_TYPE":"U","NORAD_CAT_ID":47267,"ELEMENT_SET_NO":999,"REV_AT_EPOCH":22235,"BSTAR":-0.00039511,"MEAN_MOTION_DOT":-1.29e-6,"MEAN_MOTION_DDOT":0},{"OBJECT_NAME":"ONEWEB-0122","OBJECT_ID":"2020-100L","EPOCH":"2025-07-29T19:19:57.664128","MEAN_MOTION":13.12442214,"ECCENTRICITY":0.0001774,"INCLINATION":87.8851,"RA_OF_ASC_NODE":54.7465,"ARG_OF_PERICENTER":80.3267,"MEAN_ANOMALY":279.8062,"EPHEMERIS_TYPE":0,"CLASSIFICATION_TYPE":"U","NORAD_CAT_ID":47268,"ELEMENT_SET_NO":999,"REV_AT_EPOCH":22226,"BSTAR":0.00013776,"MEAN_MOTION_DOT":6.2e-7,"MEAN_MOTION_DDOT":0},{"OBJECT_NAME":"ONEWEB-0123","OBJECT_ID":"2020-100M","EPOCH":"2025-07-29T13:43:48.524160","MEAN_MOTION":13.12442177,"ECCENTRICITY":0.0001658,"INCLINATION":87.885,"RA_OF_ASC_NODE":54.8208,"ARG_OF_PERICENTER":87.265,"MEAN_ANOMALY":272.8668,"EPHEMERIS_TYPE":0,"CLASSIFICATION_TYPE":"U","NORAD_CAT_ID":47269,"ELEMENT_SET_NO":999,"REV_AT_EPOCH":22237,"BSTAR":0.00040043,"MEAN_MOTION_DOT":1.57e-6,"MEAN_MOTION_DDOT":0},{"OBJECT_NAME":"ONEWEB-0124","OBJECT_ID":"2020-100N","EPOCH":"2025-07-29T13:27:27.338112","MEAN_MOTION":13.12441941,"ECCENTRICITY":0.0001914,"INCLINATION":87.8856,"RA_OF_ASC_NODE":54.8221,"ARG_OF_PERICENTER":88.9913,"MEAN_ANOMALY":271.1435,"EPHEMERIS_TYPE":0,"CLASSIFICATION_TYPE":"U","NORAD_CAT_ID":47270,"ELEMENT_SET_NO":999,"REV_AT_EPOCH":22225,"BSTAR":0.001192,"MEAN_MOTION_DOT":4.42e-6,"MEAN_MOTION_DDOT":0},{"OBJECT_NAME":"ONEWEB-0125","OBJECT_ID":"2020-100P","EPOCH":"2025-07-29T12:54:45.047232","MEAN_MOTION":13.12443802,"ECCENTRICITY":0.0001733,"INCLINATION":87.8861,"RA_OF_ASC_NODE":54.79,"ARG_OF_PERICENTER":94.8863,"MEAN_ANOMALY":265.2463,"EPHEMERIS_TYPE":0,"CLASSIFICATION_TYPE":"U","NORAD_CAT_ID":47271,"ELEMENT_SET_NO":999,"REV_AT_EPOCH":22231,"BSTAR":-5.2204e-5,"MEAN_MOTION_DOT":-6.0e-8,"MEAN_MOTION_DDOT":0},{"OBJECT_NAME":"ONEWEB-0126","OBJECT_ID":"2020-100Q","EPOCH":"2025-07-29T20:44:27.566016","MEAN_MOTION":13.12443699,"ECCENTRICITY":0.0001671,"INCLINATION":87.8869,"RA_OF_ASC_NODE":54.7426,"ARG_OF_PERICENTER":83.5042,"MEAN_ANOMALY":276.6276,"EPHEMERIS_TYPE":0,"CLASSIFICATION_TYPE":"U","NORAD_CAT_ID":47272,"ELEMENT_SET_NO":999,"REV_AT_EPOCH":22242,"BSTAR":0.0013638,"MEAN_MOTION_DOT":5.03e-6,"MEAN_MOTION_DDOT":0},{"OBJECT_NAME":"ONEWEB-0127","OBJECT_ID":"2020-100R","EPOCH":"2025-07-29T14:25:50.205792","MEAN_MOTION":13.12443756,"ECCENTRICITY":0.0001708,"INCLINATION":87.8861,"RA_OF_ASC_NODE":54.8105,"ARG_OF_PERICENTER":80.8766,"MEAN_ANOMALY":279.2556,"EPHEMERIS_TYPE":0,"CLASSIFICATION_TYPE":"U","NORAD_CAT_ID":47273,"ELEMENT_SET_NO":999,"REV_AT_EPOCH":22241,"BSTAR":-0.00093979,"MEAN_MOTION_DOT":-3.25e-6,"MEAN_MOTION_DDOT":0},{"OBJECT_NAME":"ONEWEB-0128","OBJECT_ID":"2020-100S","EPOCH":"2025-07-29T13:08:46.178016","MEAN_MOTION":13.12443254,"ECCENTRICITY":0.0001923,"INCLINATION":87.8856,"RA_OF_ASC_NODE":54.8481,"ARG_OF_PERICENTER":79.3964,"MEAN_ANOMALY":280.7381,"EPHEMERIS_TYPE":0,"CLASSIFICATION_TYPE":"U","NORAD_CAT_ID":47274,"ELEMENT_SET_NO":999,"REV_AT_EPOCH":22242,"BSTAR":0.0008269,"MEAN_MOTION_DOT":3.1e-6,"MEAN_MOTION_DDOT":0},{"OBJECT_NAME":"ONEWEB-0129","OBJECT_ID":"2020-100T","EPOCH":"2025-07-29T14:28:10.631712","MEAN_MOTION":13.1244329,"ECCENTRICITY":0.00012,"INCLINATION":87.886,"RA_OF_ASC_NODE":54.7796,"ARG_OF_PERICENTER":42.6768,"MEAN_ANOMALY":317.4454,"EPHEMERIS_TYPE":0,"CLASSIFICATION_TYPE":"U","NORAD_CAT_ID":47275,"ELEMENT_SET_NO":999,"REV_AT_EPOCH":22236,"BSTAR":-0.00092058,"MEAN_MOTION_DOT":-3.18e-6,"MEAN_MOTION_DDOT":0},{"OBJECT_NAME":"ONEWEB-0130","OBJECT_ID":"2020-100U","EPOCH":"2025-07-29T13:18:06.742944","MEAN_MOTION":13.12445204,"ECCENTRICITY":0.0001787,"INCLINATION":87.8847,"RA_OF_ASC_NODE":54.7894,"ARG_OF_PERICENTER":81.9851,"MEAN_ANOMALY":278.148,"EPHEMERIS_TYPE":0,"CLASSIFICATION_TYPE":"U","NORAD_CAT_ID":47276,"ELEMENT_SET_NO":999,"REV_AT_EPOCH":22232,"BSTAR":0.0011091,"MEAN_MOTION_DOT":4.12e-6,"MEAN_MOTION_DDOT":0},{"OBJECT_NAME":"ONEWEB-0131","OBJECT_ID":"2020-100V","EPOCH":"2025-07-29T20:32:34.541376","MEAN_MOTION":13.12443468,"ECCENTRICITY":0.0001848,"INCLINATION":87.8853,"RA_OF_ASC_NODE":54.7558,"ARG_OF_PERICENTER":84.5788,"MEAN_ANOMALY":275.5551,"EPHEMERIS_TYPE":0,"CLASSIFICATION_TYPE":"U","NORAD_CAT_ID":47277,"ELEMENT_SET_NO":999,"REV_AT_EPOCH":22240,"BSTAR":0.00094287,"MEAN_MOTION_DOT":3.52e-6,"MEAN_MOTION_DDOT":0},{"OBJECT_NAME":"ONEWEB-0132","OBJECT_ID":"2020-100W","EPOCH":"2025-07-29T19:24:49.592448","MEAN_MOTION":13.12442105,"ECCENTRICITY":0.0001886,"INCLINATION":87.8858,"RA_OF_ASC_NODE":54.7675,"ARG_OF_PERICENTER":90.6056,"MEAN_ANOMALY":269.5289,"EPHEMERIS_TYPE":0,"CLASSIFICATION_TYPE":"U","NORAD_CAT_ID":47278,"ELEMENT_SET_NO":999,"REV_AT_EPOCH":22229,"BSTAR":-0.00026207,"MEAN_MOTION_DOT":-8.2e-7,"MEAN_MOTION_DDOT":0},{"OBJECT_NAME":"ONEWEB-0133","OBJECT_ID":"2020-100X","EPOCH":"2025-07-29T14:18:38.049408","MEAN_MOTION":13.12443355,"ECCENTRICITY":0.0001914,"INCLINATION":87.8846,"RA_OF_ASC_NODE":54.7848,"ARG_OF_PERICENTER":83.4392,"MEAN_ANOMALY":276.6955,"EPHEMERIS_TYPE":0,"CLASSIFICATION_TYPE":"U","NORAD_CAT_ID":47279,"ELEMENT_SET_NO":999,"REV_AT_EPOCH":22242,"BSTAR":-0.0011297,"MEAN_MOTION_DOT":-3.94e-6,"MEAN_MOTION_DDOT":0},{"OBJECT_NAME":"ONEWEB-0134","OBJECT_ID":"2020-100Y","EPOCH":"2025-07-29T20:53:35.024928","MEAN_MOTION":13.12441811,"ECCENTRICITY":0.0001828,"INCLINATION":87.8849,"RA_OF_ASC_NODE":54.7137,"ARG_OF_PERICENTER":77.3354,"MEAN_ANOMALY":282.7979,"EPHEMERIS_TYPE":0,"CLASSIFICATION_TYPE":"U","NORAD_CAT_ID":47280,"ELEMENT_SET_NO":999,"REV_AT_EPOCH":22243,"BSTAR":0.00098977,"MEAN_MOTION_DOT":3.69e-6,"MEAN_MOTION_DDOT":0},{"OBJECT_NAME":"ONEWEB-0135","OBJECT_ID":"2020-100Z","EPOCH":"2025-07-29T12:52:24.858048","MEAN_MOTION":13.12443785,"ECCENTRICITY":0.0002058,"INCLINATION":87.8854,"RA_OF_ASC_NODE":54.8194,"ARG_OF_PERICENTER":74.9909,"MEAN_ANOMALY":285.1447,"EPHEMERIS_TYPE":0,"CLASSIFICATION_TYPE":"U","NORAD_CAT_ID":47281,"ELEMENT_SET_NO":999,"REV_AT_EPOCH":22241,"BSTAR":-0.00034456,"MEAN_MOTION_DOT":-1.11e-6,"MEAN_MOTION_DDOT":0}]
